FENGYUN 1C DEB          
1 31609U 99025BZP 17344.38471093  .00000072  00000-0  77570-4 0  9997
2 31609  99.1387 299.9394 0101930 115.3959  35.9020 13.98266061250749
